{
  "type": "FeatureCollection",
  "generator": "overpass-ide",
  "copyright": "The data included in this document is from www.openstreetmap.org. The data is made available under ODbL.",
  "timestamp": "2018-11-25T23:49:02Z",
  "features": [
    {
      "type": "Feature",
      "properties": {
        "@id": "node/305639157",
        "alt_name:en": "Antarctic Ocean;South Polar Ocean;Austral Ocean",
        "alt_name:eo": "Antarkta Oceano;Sudpolusa Oceano",
        "alt_name:ia": "Oceano Antarctic",
        "alt_name:ku": "Deryaya Cemsera Başû, Okyanûsa Antarktîka",
        "alt_name:pl": "Południowy Ocean Lodowaty;Ocean Antarktyczny",
        "gns:dsg": "OCN",
        "gns:uni": "9148270",
        "name": "Southern Ocean",
        "name:ar": "المحيط المتجمد الجنوبي",
        "name:be": "Паўднёвы акіян",
        "name:cs": "Jižní oceán",
        "name:csb": "Pôłniowi Òcean",
        "name:de": "Südlicher Ozean",
        "name:en": "Southern Ocean",
        "name:eo": "Suda Oceano",
        "name:es": "Océano Antártico",
        "name:fa": "اقیانوس منجمد جنوبی",
        "name:fi": "Eteläinen jäämeri",
        "name:fr": "Océan Austral",
        "name:hr": "Južni ocean",
        "name:ia": "Oceano Austral",
        "name:io": "Antarktika oceano",
        "name:is": "Suður-Íshaf",
        "name:it": "Mari antartici",
        "name:ku": "Okyanûsa Başûr",
        "name:mg": "Ranomasimbe Atsimo",
        "name:mi": "Te Moana-tāpokopoko-a-Tāwhaki",
        "name:ms": "Lautan Selatan",
        "name:nl": "Zuidelijke Oceaan",
        "name:no": "Sørishavet",
        "name:pl": "Ocean Południowy",
        "name:pt": "Oceano Antártico",
        "name:ru": "Южный океан",
        "name:sk": "Južný oceán",
        "name:sl": "Južni ocean",
        "name:sv": "Antarktiska oceanen",
        "name:szl": "Uocean Pouedńowy",
        "name:tl": "Katimugang Karagatan",
        "name:tr": "Güney Okyanusu",
        "name:uk": "Південний океан",
        "name:vi": "Nam Đại Dương",
        "name:vo": "Sulüdagladean",
        "name:zh": "南冰洋",
        "type": "ocean",
        "source": "GNS",
        "sqkm": "20327000",
        "wikidata": "Q7354",
        "wikipedia": "en:Southern Ocean"
      },
      "geometry": {
        "type": "Point",
        "coordinates": [
          89.9999999,
          -59.9999999
        ]
      },
      "id": "node/305639157"
    },
    {
      "type": "Feature",
      "properties": {
        "@id": "node/305639710",
        "alt_name:csb": "Arktikòwi Òcean",
        "alt_name:eo": "Norda Oceano",
        "alt_name:ku": "Derya Cemsera Bakur, Derya Cemedêya Bakur",
        "gns:dsg": "OCN",
        "gns:uni": "-2149623",
        "name": "Arctic Ocean",
        "name:ar": "المحيط المتجمد الشمالي",
        "name:be": "Паўночны Ледавіты акіян",
        "name:br": "Meurvor Arktikel",
        "name:cs": "Severní ledový oceán",
        "name:csb": "Nordowi Òcean",
        "name:de": "Arktischer Ozean",
        "name:en": "Arctic Ocean",
        "name:eo": "Arkta Oceano",
        "name:es": "Océano Ártico",
        "name:fa": "اقیانوس منجمد شمالی",
        "name:fi": "Pohjoinen jäämeri",
        "name:fr": "Océan Arctique",
        "name:hr": "Arktički ocean",
        "name:ia": "Oceano Arctic",
        "name:io": "Arktika oceano",
        "name:it": "Mare glaciale artico",
        "name:ja": "北極海",
        "name:ku": "Okyanûsa Arktîk",
        "name:lt": "Pietų vandenynas",
        "name:mg": "Ranomasimbe Avaratra",
        "name:ms": "Lautan Artik",
        "name:nl": "Noordelijke IJszee",
        "name:no": "Nordishavet",
        "name:nov": "Arkti Oseane",
        "name:pl": "Ocean Arktyczny",
        "name:pt": "Oceano Ártico",
        "name:ru": "Северный Ледовитый океан",
        "name:sk": "Severný ľadový oceán",
        "name:sl": "Arktični ocean",
        "name:sv": "Norra ishavet",
        "name:szl": "Uocean Arktyčny",
        "name:tl": "Karagatang Artiko",
        "name:uk": "Північний Льодовитий океан",
        "name:vo": "Nolüdapovean",
        "name:zh": "北冰洋",
        "type": "ocean",
        "source": "GNS",
        "source:name:br": "ofis publik ar brezhoneg",
        "sqkm": "14090000",
        "wikidata": "Q788",
        "wikipedia": "en:Arctic Ocean",
        "wikipedia:fi": "Pohjoinen jäämeri"
      },
      "geometry": {
        "type": "Point",
        "coordinates": [
          -170,
          83
        ]
      },
      "id": "node/305639710"
    },
    {
      "type": "Feature",
      "properties": {
        "@id": "node/305640005",
        "alt_name:cs": "Pacifik",
        "alt_name:csb": "Pacyfik;Wiôldżi Òcean",
        "alt_name:de": "Pazifik",
        "alt_name:eo": "Pacifiko",
        "alt_name:pl": "Pacyfik",
        "alt_name:sl": "Pacifik;Pacifiški ocean",
        "alt_name:szl": "Pacyfik;Uocean Wjelgi",
        "gns:dsg": "OCN",
        "gns:uni": "-2149925",
        "name": "Pacific Ocean",
        "name:ar": "المحيط الهادئ",
        "name:be": "Ціхі акеан",
        "name:cs": "Tichý oceán",
        "name:csb": "Spòkójny Òcean",
        "name:da": "Stillehavet",
        "name:de": "Pazifischer Ozean",
        "name:el": "Ειρηνικός Ωκεανός",
        "name:en": "Pacific Ocean",
        "name:eo": "Pacifika Oceano",
        "name:es": "Océano Pacífico",
        "name:fa": "اقیانوس آرام",
        "name:fi": "Tyyni valtameri",
        "name:fo": "Kyrrahavið",
        "name:fr": "Océan Pacifique",
        "name:haw": "Moana Pākīpika",
        "name:he": "האוקיינוס השקט",
        "name:hr": "Tihi ocean",
        "name:hu": "Csendes-óceán",
        "name:ia": "Oceano Pacific",
        "name:io": "Oceano Pacifiko",
        "name:is": "Kyrrahaf",
        "name:it": "Oceano Pacifico",
        "name:ja": "太平洋",
        "name:ja_kana": "たいへいよう",
        "name:ku": "Okyanûsa Mezin",
        "name:la": "Oceanus Pacificus",
        "name:mg": "Ranomasimbe Pasifika",
        "name:mi": "Te Moana-nui-a-Kiwa",
        "name:ms": "Lautan Pasifik",
        "name:nl": "Grote Oceaan",
        "name:nn": "Stillehavet",
        "name:no": "Stillehavet",
        "name:nov": "Pasifiki Oseane",
        "name:pl": "Ocean Spokojny",
        "name:pt": "Oceano Pacífico",
        "name:ru": "Тихий океан",
        "name:sk": "Tichý oceán",
        "name:sl": "Tihi ocean",
        "name:sv": "Stilla havet",
        "name:szl": "Uocean Spokojny",
        "name:tl": "Karagatang Pasipiko",
        "name:tr": "Büyük Okyanus",
        "name:uk": "Тихий океан",
        "name:vo": "Pasifean",
        "name:zh": "太平洋",
        "old_name:sv": "Söderhavet",
        "type": "ocean",
        "source": "GNS",
        "sqkm": "166240000",
        "wikidata": "Q98",
        "wikipedia": "ru:Тихий океан"
      },
      "geometry": {
        "type": "Point",
        "coordinates": [
          -120.9375,
          -0.703107
        ]
      },
      "id": "node/305640005"
    },
    {
      "type": "Feature",
      "properties": {
        "@id": "node/305640074",
        "gns:dsg": "OCN",
        "gns:uni": "-2149804",
        "name": "Indian Ocean",
        "name:ar": "المحيط الهندي",
        "name:be": "Індыйскі акіян",
        "name:br": "Meurvor Indez",
        "name:cs": "Indický oceán",
        "name:csb": "Jindijsczi Òcean",
        "name:de": "Indischer Ozean",
        "name:en": "Indian Ocean",
        "name:eo": "Hinda Oceano",
        "name:es": "Océano Índico",
        "name:fa": "اقیانوس هند",
        "name:fi": "Intian valtameri",
        "name:fr": "Océan Indien",
        "name:he": "האוקיינוס ההודי",
        "name:hi": "हिन्द महासागर",
        "name:hr": "Indijski ocean",
        "name:hu": "Indiai-óceán",
        "name:ia": "Oceano Indian",
        "name:io": "Indiana oceano",
        "name:it": "Oceano Indiano",
        "name:ja": "インド洋",
        "name:ku": "Okyanûsa Hîndê",
        "name:mg": "Ranomasimbe Indiana",
        "name:ms": "Lautan Hindi",
        "name:nl": "Indische Oceaan",
        "name:no": "Indiahavet",
        "name:nov": "Indiani Oseane",
        "name:nys": "Gabee-wodin",
        "name:pl": "Ocean Indyjski",
        "name:pt": "Oceano Índico",
        "name:ru": "Индийский океан",
        "name:sk": "Indický oceán",
        "name:sl": "Indijski ocean",
        "name:sv": "Indiska oceanen",
        "name:szl": "Uocean Indyjski",
        "name:tr": "Hint Okyanusu",
        "name:uk": "Індійський океан",
        "name:vi": "Ấn Độ Dương",
        "name:vo": "Lindean",
        "name:zh": "印度洋",
        "type": "ocean",
        "source": "GNS",
        "source:name:br": "ofis publik ar brezhoneg",
        "source:name:nys": "Derbal Nara website http://www.derbalnara.org.au used with permission",
        "sqkm": "74900000",
        "wikidata": "Q1239",
        "wikipedia": "en:Indian Ocean"
      },
      "geometry": {
        "type": "Point",
        "coordinates": [
          69.9999999,
          -9.9999999
        ]
      },
      "id": "node/305640074"
    },
    {
      "type": "Feature",
      "properties": {
        "@id": "node/305640306",
        "alt_name:cs": "Atlantický oceán",
        "alt_name:de": "Atlantik",
        "alt_name:eo": "Atlantiko",
        "alt_name:pl": "Atlantyk",
        "gns:dsg": "OCN",
        "gns:uni": "-2149627",
        "name": "Atlantic Ocean",
        "name:ar": "المحيط الأطلسي",
        "name:be": "Атлантычны акіян",
        "name:be-tarask": "Атлянтычны акіян",
        "name:br": "Meurvor Atlantel",
        "name:cs": "Atlantský oceán",
        "name:csb": "Atlantëcczi Òcean",
        "name:da": "Atlanterhavet",
        "name:de": "Atlantischer Ozean",
        "name:el": "Ατλαντικός Ωκεανός",
        "name:en": "Atlantic Ocean",
        "name:eo": "Atlantika Oceano",
        "name:es": "Océano Atlántico",
        "name:eu": "Ozeano Atlantikoa",
        "name:fa": "اقیانوس اطلس",
        "name:fi": "Atlantin valtameri",
        "name:fo": "Atlantshavið",
        "name:fr": "Océan Atlantique",
        "name:he": "האוקיינוס האטלנטי",
        "name:hr": "Atlantski ocean",
        "name:hu": "Atlanti-óceán",
        "name:ia": "Oceano Atlantic",
        "name:io": "Oceano Atlantiko",
        "name:is": "Atlantshaf",
        "name:it": "Oceano Atlantico",
        "name:ja": "大西洋",
        "name:ku": "Okyanûsa Atlantîk",
        "name:mg": "Ranomasimbe Atlantika",
        "name:ms": "Lautan Atlantik",
        "name:nl": "Atlantische Oceaan",
        "name:no": "Atlanterhavet",
        "name:nov": "Atlanti Oseane",
        "name:pl": "Ocean Atlantycki",
        "name:pt": "Oceano Atlântico",
        "name:ru": "Атлантический океан",
        "name:sk": "Atlantický oceán",
        "name:sl": "Atlantski ocean",
        "name:sv": "Atlanten",
        "name:szl": "Uocean Atlantycki",
        "name:tl": "Karagatang Atlantiko",
        "name:tr": "Atlas Okyanusu",
        "name:uk": "Атлантичний океан",
        "name:vi": "Đại Tây Dương",
        "name:vo": "Latlantean",
        "name:zh": "大西洋",
        "type": "ocean",
        "short_name:cs": "Atlantik",
        "source": "GNS",
        "source:name:br": "ofis publik ar brezhoneg",
        "sqkm": "79776350",
        "wikidata": "Q97",
        "wikipedia": "en:Atlantic Ocean"
      },
      "geometry": {
        "type": "Point",
        "coordinates": [
          -38.320312,
          13.581921
        ]
      },
      "id": "node/305640306"
    }
  ]
}
